[
    {
        "Altitude(m)": 611967.2056832366,
        "Argument of Periapsis(deg)": 0.0,
        "Eccentricity": 0.0,
        "Inclination(deg)": 60.0,
        "Latitude(deg)": 59.14024266569794,
        "Longitude(deg)": 61.0919667961357,
        "Mean Anomaly(deg)": 98.18179999999998,
        "RAAN(deg)": 55.00000000000001,
        "Satellite Name": "Test1 248",
        "Satellite Number": 248,
        "Semi-Major Axis(m)": 6980739.136638005,
        "Time(s)": 0
    },
    {
        "Altitude(m)": 611934.405970901,
        "Argument of Periapsis(deg)": 0.00010418945913296404,
        "Eccentricity": 0.0,
        "Inclination(deg)": 60.0,
        "Latitude(deg)": 58.98660590514533,
        "Longitude(deg)": 62.21521573181829,
        "Mean Anomaly(deg)": 98.80190614546183,
        "RAAN(deg)": 54.999579950860266,
        "Satellite Name": "Test1 248",
        "Satellite Number": 248,
        "Semi-Major Axis(m)": 6980739.136638005,
        "Time(s)": 10
    },
    {
        "Altitude(m)": 611899.3016126379,
        "Argument of Periapsis(deg)": 0.0002083789182659281,
        "Eccentricity": 0.0,
        "Inclination(deg)": 60.0,
        "Latitude(deg)": 58.822590993608515,
        "Longitude(deg)": 63.327799350453816,
        "Mean Anomaly(deg)": 99.42201229092365,
        "RAAN(deg)": 54.999159901720525,
        "Satellite Name": "Test1 248",
        "Satellite Number": 248,
        "Semi-Major Axis(m)": 6980739.136638005,
        "Time(s)": 20
    },
    {
        "Altitude(m)": 611861.9128426035,
        "Argument of Periapsis(deg)": 0.00031256837739889213,
        "Eccentricity": 0.0,
        "Inclination(deg)": 60.0,
        "Latitude(deg)": 58.64836098062318,
        "Longitude(deg)": 64.42920584951484,
        "Mean Anomaly(deg)": 100.0421184363855,
        "RAAN(deg)": 54.99873985258077,
        "Satellite Name": "Test1 248",
        "Satellite Number": 248,
        "Semi-Major Axis(m)": 6980739.136638005,
        "Time(s)": 30
    },
    {
        "Altitude(m)": 611822.2612207998,
        "Argument of Periapsis(deg)": 0.0004167578365318562,
        "Eccentricity": 0.0,
        "Inclination(deg)": 60.0,
        "Latitude(deg)": 58.464085364820676,
        "Longitude(deg)": 65.5189641755428,
        "Mean Anomaly(deg)": 100.66222458184733,
        "RAAN(deg)": 54.99831980344103,
        "Satellite Name": "Test1 248",
        "Satellite Number": 248,
        "Semi-Major Axis(m)": 6980739.136638005,
        "Time(s)": 40
    },
    {
        "Altitude(m)": 611780.3696228486,
        "Argument of Periapsis(deg)": 0.0005209472956648203,
        "Eccentricity": 0.0,
        "Inclination(deg)": 60.0,
        "Latitude(deg)": 58.26993937740037,
        "Longitude(deg)": 66.59664324786716,
        "Mean Anomaly(deg)": 101.28233072730913,
        "RAAN(deg)": 54.99789975430129,
        "Satellite Name": "Test1 248",
        "Satellite Number": 248,
        "Semi-Major Axis(m)": 6980739.136638005,
        "Time(s)": 50
    },
    {
        "Altitude(m)": 611736.2622292,
        "Argument of Periapsis(deg)": 0.0006251367547977843,
        "Eccentricity": 0.0,
        "Inclination(deg)": 60.0,
        "Latitude(deg)": 58.066103272060225,
        "Longitude(deg)": 67.66185240519424,
        "Mean Anomaly(deg)": 101.90243687277098,
        "RAAN(deg)": 54.99747970516154,
        "Satellite Name": "Test1 248",
        "Satellite Number": 248,
        "Semi-Major Axis(m)": 6980739.136638005,
        "Time(s)": 60
    },
    {
        "Altitude(m)": 611689.9645136646,
        "Argument of Periapsis(deg)": 0.0007293262139307483,
        "Eccentricity": 0.0,
        "Inclination(deg)": 60.0,
        "Latitude(deg)": 57.85276162676675,
        "Longitude(deg)": 68.71424158242095,
        "Mean Anomaly(deg)": 102.52254301823282,
        "RAAN(deg)": 54.9970596560218,
        "Satellite Name": "Test1 248",
        "Satellite Number": 248,
        "Semi-Major Axis(m)": 6980739.136638005,
        "Time(s)": 70
    },
    {
        "Altitude(m)": 611641.5032313652,
        "Argument of Periapsis(deg)": 0.0008335156730637124,
        "Eccentricity": 0.0,
        "Inclination(deg)": 60.0,
        "Latitude(deg)": 57.63010266220486,
        "Longitude(deg)": 69.75349972718308,
        "Mean Anomaly(deg)": 103.14264916369464,
        "RAAN(deg)": 54.996639606882056,
        "Satellite Name": "Test1 248",
        "Satellite Number": 248,
        "Semi-Major Axis(m)": 6980739.136638005,
        "Time(s)": 80
    },
    {
        "Altitude(m)": 611590.906406062,
        "Argument of Periapsis(deg)": 0.0009377051321966765,
        "Eccentricity": 0.0,
        "Inclination(deg)": 60.0,
        "Latitude(deg)": 57.39831758118215,
        "Longitude(deg)": 70.77935450581967,
        "Mean Anomaly(deg)": 103.76275530915647,
        "RAAN(deg)": 54.996219557742315,
        "Satellite Name": "Test1 248",
        "Satellite Number": 248,
        "Semi-Major Axis(m)": 6980739.136638005,
        "Time(s)": 90
    },
    {
        "Altitude(m)": 611538.2033168633,
        "Argument of Periapsis(deg)": 0.0010418945913296407,
        "Eccentricity": 0.0,
        "Inclination(deg)": 60.0,
        "Latitude(deg)": 57.15759993267197,
        "Longitude(deg)": 71.79157181076722,
        "Mean Anomaly(deg)": 104.3828614546183,
        "RAAN(deg)": 54.99579950860257,
        "Satellite Name": "Test1 248",
        "Satellite Number": 248,
        "Semi-Major Axis(m)": 6980739.136638005,
        "Time(s)": 100
    },
    {
        "Altitude(m)": 611483.4244843322,
        "Argument of Periapsis(deg)": 0.0011460840504626045,
        "Eccentricity": 0.0,
        "Inclination(deg)": 60.0,
        "Latitude(deg)": 56.908145003594825,
        "Longitude(deg)": 72.78995358180889,
        "Mean Anomaly(deg)": 105.00296760008013,
        "RAAN(deg)": 54.99537945946283,
        "Satellite Name": "Test1 248",
        "Satellite Number": 248,
        "Semi-Major Axis(m)": 6980739.136638005,
        "Time(s)": 110
    },
    {
        "Altitude(m)": 611426.6016560309,
        "Argument of Periapsis(deg)": 0.0012502735095955685,
        "Eccentricity": 0.0,
        "Inclination(deg)": 60.0,
        "Latitude(deg)": 56.65014924086484,
        "Longitude(deg)": 73.77433699216763,
        "Mean Anomaly(deg)": 105.62307374554194,
        "RAAN(deg)": 54.99495941032309,
        "Satellite Name": "Test1 248",
        "Satellite Number": 248,
        "Semi-Major Axis(m)": 6980739.136638005,
        "Time(s)": 120
    },
    {
        "Altitude(m)": 611367.7677914158,
        "Argument of Periapsis(deg)": 0.0013544629687285324,
        "Eccentricity": 0.0,
        "Inclination(deg)": 60.0,
        "Latitude(deg)": 56.383809705668,
        "Longitude(deg)": 74.7445935112982,
        "Mean Anomaly(deg)": 106.24317989100376,
        "RAAN(deg)": 54.99453936118335,
        "Satellite Name": "Test1 248",
        "Satellite Number": 248,
        "Semi-Major Axis(m)": 6980739.136638005,
        "Time(s)": 130
    },
    {
        "Altitude(m)": 611306.9570461839,
        "Argument of Periapsis(deg)": 0.0014586524278614966,
        "Eccentricity": 0.0,
        "Inclination(deg)": 60.0,
        "Latitude(deg)": 56.10932356141473,
        "Longitude(deg)": 75.70062635536358,
        "Mean Anomaly(deg)": 106.86328603646564,
        "RAAN(deg)": 54.99411931204361,
        "Satellite Name": "Test1 248",
        "Satellite Number": 248,
        "Semi-Major Axis(m)": 6980739.136638005,
        "Time(s)": 140
    },
    {
        "Altitude(m)": 611244.2047560418,
        "Argument of Periapsis(deg)": 0.0015628418869944607,
        "Eccentricity": 0.0,
        "Inclination(deg)": 60.0,
        "Latitude(deg)": 55.82688759631912,
        "Longitude(deg)": 76.64236937384494,
        "Mean Anomaly(deg)": 107.48339218192744,
        "RAAN(deg)": 54.99369926290386,
        "Satellite Name": "Test1 248",
        "Satellite Number": 248,
        "Semi-Major Axis(m)": 6980739.136638005,
        "Time(s)": 150
    },
    {
        "Altitude(m)": 611179.5474198883,
        "Argument of Periapsis(deg)": 0.0016670313461274247,
        "Eccentricity": 0.0,
        "Inclination(deg)": 60.0,
        "Latitude(deg)": 55.536697781105026,
        "Longitude(deg)": 77.56978588069342,
        "Mean Anomaly(deg)": 108.10349832738929,
        "RAAN(deg)": 54.99327921376412,
        "Satellite Name": "Test1 248",
        "Satellite Number": 248,
        "Semi-Major Axis(m)": 6980739.136638005,
        "Time(s)": 160
    },
    {
        "Altitude(m)": 611113.0226824217,
        "Argument of Periapsis(deg)": 0.0017712208052603888,
        "Eccentricity": 0.0,
        "Inclination(deg)": 60.0,
        "Latitude(deg)": 55.23894886193091,
        "Longitude(deg)": 78.48286593684624,
        "Mean Anomaly(deg)": 108.72360447285114,
        "RAAN(deg)": 54.99285916462438,
        "Satellite Name": "Test1 248",
        "Satellite Number": 248,
        "Semi-Major Axis(m)": 6980739.136638005,
        "Time(s)": 170
    },
    {
        "Altitude(m)": 611044.6693162154,
        "Argument of Periapsis(deg)": 0.001875410264393353,
        "Eccentricity": 0.0,
        "Inclination(deg)": 60.0,
        "Latitude(deg)": 54.933833988267004,
        "Longitude(deg)": 79.38162512785438,
        "Mean Anomaly(deg)": 109.34371061831294,
        "RAAN(deg)": 54.992439115484636,
        "Satellite Name": "Test1 248",
        "Satellite Number": 248,
        "Semi-Major Axis(m)": 6980739.136638005,
        "Time(s)": 180
    },
    {
        "Altitude(m)": 610974.5272032268,
        "Argument of Periapsis(deg)": 0.0019795997235263173,
        "Eccentricity": 0.0,
        "Inclination(deg)": 60.0,
        "Latitude(deg)": 54.62154437513901,
        "Longitude(deg)": 80.26610333996034,
        "Mean Anomaly(deg)": 109.96381676377476,
        "RAAN(deg)": 54.992019066344895,
        "Satellite Name": "Test1 248",
        "Satellite Number": 248,
        "Semi-Major Axis(m)": 6980739.136638005,
        "Time(s)": 190
    }
]